[{"OBJECT_NAME":"STARLINK-35058","OBJECT_ID":"2025-191R","EPOCH":"2026-03-09T14:13:33.110112","MEAN_MOTION":15.05670963,"ECCENTRICITY":0.0001639,"INCLINATION":97.603,"RA_OF_ASC_NODE":301.4104,"ARG_OF_PERICENTER":72.1467,"MEAN_ANOMALY":287.9938,"EPHEMERIS_TYPE":0,"CLASSIFICATION_TYPE":"U","NORAD_CAT_ID":65394,"ELEMENT_SET_NO":999,"REV_AT_EPOCH":3025,"BSTAR":0.00052604,"MEAN_MOTION_DOT":7.542e-5,"MEAN_MOTION_DDOT":0},{"OBJECT_NAME":"PSLV DEB","OBJECT_ID":"2001-049NA","EPOCH":"2026-03-08T15:04:56.759808","MEAN_MOTION":15.08740413,"ECCENTRICITY":0.00254054,"INCLINATION":98.314,"RA_OF_ASC_NODE":131.3874,"ARG_OF_PERICENTER":357.4644,"MEAN_ANOMALY":2.6449,"EPHEMERIS_TYPE":0,"CLASSIFICATION_TYPE":"U","NORAD_CAT_ID":27582,"ELEMENT_SET_NO":999,"REV_AT_EPOCH":27774,"BSTAR":0.00086862236,"MEAN_MOTION_DOT":0.0001368,"MEAN_MOTION_DDOT":0}]
